ONEWEB-0564             
1 55801U 23029F   26063.13572941  .00000157  00000+0  35388-3 0  9996
2 55801  87.9170 295.4377 0001420  70.1348 289.9938 13.20772357147287
ONEWEB-0638             
1 55802U 23029G   26063.19829598  .00000156  00000+0  38605-3 0  9990
2 55802  87.8986 310.7080 0001045  75.4656 284.6589 13.14503554145609
ONEWEB-0639             
1 55803U 23029H   26063.25309747 -.00000038  00000+0 -12807-3 0  9994
2 55803  87.9237 325.8817 0002081 109.9541 250.1816 13.19727045145061
ONEWEB-0640             
1 55804U 23029J   26063.20779910  .00000316  00000+0  81822-3 0  9993
2 55804  87.8989 310.6966 0000973  98.2072 261.9168 13.14501964145626
ONEWEB-0641             
1 55805U 23029K   26063.24836241  .00000084  00000+0  17861-3 0  9993
2 55805  87.9241 325.8692 0001756  84.4516 275.6817 13.19726052145077
ONEWEB-0642             
1 55806U 23029L   26063.24362552  .00000059  00000+0  11601-3 0  9991
2 55806  87.9235 325.8852 0002191 101.0745 259.0634 13.19726466145064
ONEWEB-0643             
1 55807U 23029M   26063.17767308 -.00000119  00000+0 -35440-3 0  9998
2 55807  87.8991 310.6895 0002177  94.3150 265.8228 13.14502290145594
ONEWEB-0644             
1 55808U 23029N   26063.23889332  .00000078  00000+0  16162-3 0  9990
2 55808  87.9228 325.8932 0001916  89.9284 270.2068 13.19726057145065
ONEWEB-0645             
1 55809U 23029P   26063.26099590  .00000057  00000+0  10931-3 0  9998
2 55809  87.9231 325.8809 0001544  96.4752 263.6557 13.19724418145061
ONEWEB-0646             
1 55810U 23029Q   26063.27836510  .00000139  00000+0  31371-3 0  9994
2 55810  87.9239 325.8769 0001835  87.5772 272.5571 13.19727296145053
ONEWEB-0648             
1 55811U 23029R   26063.22207418  .00000157  00000+0  39033-3 0  9992
2 55811  87.8998 310.6453 0001769 114.8474 245.2840 13.14501687145602
ONEWEB-0649             
1 55812U 23029S   26063.22781941  .00000104  00000+0  22706-3 0  9992
2 55812  87.9238 325.8841 0001613  90.5670 269.5647 13.19725265145087
ONEWEB-0650             
1 55813U 23029T   26063.22308536  .00000088  00000+0  18852-3 0  9996
2 55813  87.9236 325.8882 0001888  93.9320 266.2029 13.19727225145057
ONEWEB-0652             
1 55814U 23029U   26063.20304642  .00000322  00000+0  83340-3 0  9994
2 55814  87.8989 310.6649 0001616  74.7405 285.3903 13.14502255145574
ONEWEB-0653             
1 55815U 23029V   26063.18718563 -.00000021  00000+0 -90696-4 0  9994
2 55815  87.8996 310.6583 0001445  76.8166 283.3125 13.14502660145605
ONEWEB-0654             
1 55816U 23029W   26063.18242742 -.00000086  00000+0 -26669-3 0  9995
2 55816  87.8990 310.6589 0001586  67.6429 292.4869 13.14502603145627
ONEWEB-0656             
1 55817U 23029X   26063.20517392  .00000128  00000+0  28359-3 0  9998
2 55817  87.9181 295.3892 0001530  67.6667 292.4628 13.20772656147292
