[{"OBJECT_NAME":"ONEWEB-0564","OBJECT_ID":"2023-029F","EPOCH":"2026-03-04T03:15:27.021024","MEAN_MOTION":13.20772357,"ECCENTRICITY":0.000142,"INCLINATION":87.917,"RA_OF_ASC_NODE":295.4377,"ARG_OF_PERICENTER":70.1348,"MEAN_ANOMALY":289.9938,"EPHEMERIS_TYPE":0,"CLASSIFICATION_TYPE":"U","NORAD_CAT_ID":55801,"ELEMENT_SET_NO":999,"REV_AT_EPOCH":14728,"BSTAR":0.00035388,"MEAN_MOTION_DOT":1.57e-6,"MEAN_MOTION_DDOT":0},{"OBJECT_NAME":"ONEWEB-0638","OBJECT_ID":"2023-029G","EPOCH":"2026-03-04T04:45:32.772672","MEAN_MOTION":13.14503554,"ECCENTRICITY":0.0001045,"INCLINATION":87.8986,"RA_OF_ASC_NODE":310.708,"ARG_OF_PERICENTER":75.4656,"MEAN_ANOMALY":284.6589,"EPHEMERIS_TYPE":0,"CLASSIFICATION_TYPE":"U","NORAD_CAT_ID":55802,"ELEMENT_SET_NO":999,"REV_AT_EPOCH":14560,"BSTAR":0.00038605,"MEAN_MOTION_DOT":1.56e-6,"MEAN_MOTION_DDOT":0},{"OBJECT_NAME":"ONEWEB-0639","OBJECT_ID":"2023-029H","EPOCH":"2026-03-04T06:04:27.621408","MEAN_MOTION":13.19727045,"ECCENTRICITY":0.0002081,"INCLINATION":87.9237,"RA_OF_ASC_NODE":325.8817,"ARG_OF_PERICENTER":109.9541,"MEAN_ANOMALY":250.1816,"EPHEMERIS_TYPE":0,"CLASSIFICATION_TYPE":"U","NORAD_CAT_ID":55803,"ELEMENT_SET_NO":999,"REV_AT_EPOCH":14506,"BSTAR":-0.00012807,"MEAN_MOTION_DOT":-3.8e-7,"MEAN_MOTION_DDOT":0},{"OBJECT_NAME":"ONEWEB-0640","OBJECT_ID":"2023-029J","EPOCH":"2026-03-04T04:59:13.842240","MEAN_MOTION":13.14501964,"ECCENTRICITY":9.73e-5,"INCLINATION":87.8989,"RA_OF_ASC_NODE":310.6966,"ARG_OF_PERICENTER":98.2072,"MEAN_ANOMALY":261.9168,"EPHEMERIS_TYPE":0,"CLASSIFICATION_TYPE":"U","NORAD_CAT_ID":55804,"ELEMENT_SET_NO":999,"REV_AT_EPOCH":14562,"BSTAR":0.00081822,"MEAN_MOTION_DOT":3.16e-6,"MEAN_MOTION_DDOT":0},{"OBJECT_NAME":"ONEWEB-0641","OBJECT_ID":"2023-029K","EPOCH":"2026-03-04T05:57:38.512224","MEAN_MOTION":13.19726052,"ECCENTRICITY":0.0001756,"INCLINATION":87.9241,"RA_OF_ASC_NODE":325.8692,"ARG_OF_PERICENTER":84.4516,"MEAN_ANOMALY":275.6817,"EPHEMERIS_TYPE":0,"CLASSIFICATION_TYPE":"U","NORAD_CAT_ID":55805,"ELEMENT_SET_NO":999,"REV_AT_EPOCH":14507,"BSTAR":0.00017861,"MEAN_MOTION_DOT":8.4e-7,"MEAN_MOTION_DDOT":0},{"OBJECT_NAME":"ONEWEB-0642","OBJECT_ID":"2023-029L","EPOCH":"2026-03-04T05:50:49.244928","MEAN_MOTION":13.19726466,"ECCENTRICITY":0.0002191,"INCLINATION":87.9235,"RA_OF_ASC_NODE":325.8852,"ARG_OF_PERICENTER":101.0745,"MEAN_ANOMALY":259.0634,"EPHEMERIS_TYPE":0,"CLASSIFICATION_TYPE":"U","NORAD_CAT_ID":55806,"ELEMENT_SET_NO":999,"REV_AT_EPOCH":14506,"BSTAR":0.00011601,"MEAN_MOTION_DOT":5.9e-7,"MEAN_MOTION_DDOT":0},{"OBJECT_NAME":"ONEWEB-0643","OBJECT_ID":"2023-029M","EPOCH":"2026-03-04T04:15:50.954112","MEAN_MOTION":13.1450229,"ECCENTRICITY":0.0002177,"INCLINATION":87.8991,"RA_OF_ASC_NODE":310.6895,"ARG_OF_PERICENTER":94.315,"MEAN_ANOMALY":265.8228,"EPHEMERIS_TYPE":0,"CLASSIFICATION_TYPE":"U","NORAD_CAT_ID":55807,"ELEMENT_SET_NO":999,"REV_AT_EPOCH":14559,"BSTAR":-0.0003544,"MEAN_MOTION_DOT":-1.19e-6,"MEAN_MOTION_DDOT":0},{"OBJECT_NAME":"ONEWEB-0644","OBJECT_ID":"2023-029N","EPOCH":"2026-03-04T05:44:00.382848","MEAN_MOTION":13.19726057,"ECCENTRICITY":0.0001916,"INCLINATION":87.9228,"RA_OF_ASC_NODE":325.8932,"ARG_OF_PERICENTER":89.9284,"MEAN_ANOMALY":270.2068,"EPHEMERIS_TYPE":0,"CLASSIFICATION_TYPE":"U","NORAD_CAT_ID":55808,"ELEMENT_SET_NO":999,"REV_AT_EPOCH":14506,"BSTAR":0.00016162,"MEAN_MOTION_DOT":7.8e-7,"MEAN_MOTION_DDOT":0},{"OBJECT_NAME":"ONEWEB-0645","OBJECT_ID":"2023-029P","EPOCH":"2026-03-04T06:15:50.045760","MEAN_MOTION":13.19724418,"ECCENTRICITY":0.0001544,"INCLINATION":87.9231,"RA_OF_ASC_NODE":325.8809,"ARG_OF_PERICENTER":96.4752,"MEAN_ANOMALY":263.6557,"EPHEMERIS_TYPE":0,"CLASSIFICATION_TYPE":"U","NORAD_CAT_ID":55809,"ELEMENT_SET_NO":999,"REV_AT_EPOCH":14506,"BSTAR":0.00010931,"MEAN_MOTION_DOT":5.7e-7,"MEAN_MOTION_DDOT":0},{"OBJECT_NAME":"ONEWEB-0646","OBJECT_ID":"2023-029Q","EPOCH":"2026-03-04T06:40:50.744640","MEAN_MOTION":13.19727296,"ECCENTRICITY":0.0001835,"INCLINATION":87.9239,"RA_OF_ASC_NODE":325.8769,"ARG_OF_PERICENTER":87.5772,"MEAN_ANOMALY":272.5571,"EPHEMERIS_TYPE":0,"CLASSIFICATION_TYPE":"U","NORAD_CAT_ID":55810,"ELEMENT_SET_NO":999,"REV_AT_EPOCH":14505,"BSTAR":0.00031371,"MEAN_MOTION_DOT":1.39e-6,"MEAN_MOTION_DDOT":0},{"OBJECT_NAME":"ONEWEB-0648","OBJECT_ID":"2023-029R","EPOCH":"2026-03-04T05:19:47.209152","MEAN_MOTION":13.14501687,"ECCENTRICITY":0.0001769,"INCLINATION":87.8998,"RA_OF_ASC_NODE":310.6453,"ARG_OF_PERICENTER":114.8474,"MEAN_ANOMALY":245.284,"EPHEMERIS_TYPE":0,"CLASSIFICATION_TYPE":"U","NORAD_CAT_ID":55811,"ELEMENT_SET_NO":999,"REV_AT_EPOCH":14560,"BSTAR":0.00039033,"MEAN_MOTION_DOT":1.57e-6,"MEAN_MOTION_DDOT":0},{"OBJECT_NAME":"ONEWEB-0649","OBJECT_ID":"2023-029S","EPOCH":"2026-03-04T05:28:03.597024","MEAN_MOTION":13.19725265,"ECCENTRICITY":0.0001613,"INCLINATION":87.9238,"RA_OF_ASC_NODE":325.8841,"ARG_OF_PERICENTER":90.567,"MEAN_ANOMALY":269.5647,"EPHEMERIS_TYPE":0,"CLASSIFICATION_TYPE":"U","NORAD_CAT_ID":55812,"ELEMENT_SET_NO":999,"REV_AT_EPOCH":14508,"BSTAR":0.00022706,"MEAN_MOTION_DOT":1.04e-6,"MEAN_MOTION_DDOT":0},{"OBJECT_NAME":"ONEWEB-0650","OBJECT_ID":"2023-029T","EPOCH":"2026-03-04T05:21:14.575104","MEAN_MOTION":13.19727225,"ECCENTRICITY":0.0001888,"INCLINATION":87.9236,"RA_OF_ASC_NODE":325.8882,"ARG_OF_PERICENTER":93.932,"MEAN_ANOMALY":266.2029,"EPHEMERIS_TYPE":0,"CLASSIFICATION_TYPE":"U","NORAD_CAT_ID":55813,"ELEMENT_SET_NO":999,"REV_AT_EPOCH":14505,"BSTAR":0.00018852,"MEAN_MOTION_DOT":8.8e-7,"MEAN_MOTION_DDOT":0},{"OBJECT_NAME":"ONEWEB-0652","OBJECT_ID":"2023-029U","EPOCH":"2026-03-04T04:52:23.210688","MEAN_MOTION":13.14502255,"ECCENTRICITY":0.0001616,"INCLINATION":87.8989,"RA_OF_ASC_NODE":310.6649,"ARG_OF_PERICENTER":74.7405,"MEAN_ANOMALY":285.3903,"EPHEMERIS_TYPE":0,"CLASSIFICATION_TYPE":"U","NORAD_CAT_ID":55814,"ELEMENT_SET_NO":999,"REV_AT_EPOCH":14557,"BSTAR":0.0008334,"MEAN_MOTION_DOT":3.22e-6,"MEAN_MOTION_DDOT":0},{"OBJECT_NAME":"ONEWEB-0653","OBJECT_ID":"2023-029V","EPOCH":"2026-03-04T04:29:32.838432","MEAN_MOTION":13.1450266,"ECCENTRICITY":0.0001445,"INCLINATION":87.8996,"RA_OF_ASC_NODE":310.6583,"ARG_OF_PERICENTER":76.8166,"MEAN_ANOMALY":283.3125,"EPHEMERIS_TYPE":0,"CLASSIFICATION_TYPE":"U","NORAD_CAT_ID":55815,"ELEMENT_SET_NO":999,"REV_AT_EPOCH":14560,"BSTAR":-9.0696e-5,"MEAN_MOTION_DOT":-2.1e-7,"MEAN_MOTION_DDOT":0},{"OBJECT_NAME":"ONEWEB-0654","OBJECT_ID":"2023-029W","EPOCH":"2026-03-04T04:22:41.729088","MEAN_MOTION":13.14502603,"ECCENTRICITY":0.0001586,"INCLINATION":87.899,"RA_OF_ASC_NODE":310.6589,"ARG_OF_PERICENTER":67.6429,"MEAN_ANOMALY":292.4869,"EPHEMERIS_TYPE":0,"CLASSIFICATION_TYPE":"U","NORAD_CAT_ID":55816,"ELEMENT_SET_NO":999,"REV_AT_EPOCH":14562,"BSTAR":-0.00026669,"MEAN_MOTION_DOT":-8.6e-7,"MEAN_MOTION_DDOT":0},{"OBJECT_NAME":"ONEWEB-0656","OBJECT_ID":"2023-029X","EPOCH":"2026-03-04T04:55:27.026688","MEAN_MOTION":13.20772656,"ECCENTRICITY":0.000153,"INCLINATION":87.9181,"RA_OF_ASC_NODE":295.3892,"ARG_OF_PERICENTER":67.6667,"MEAN_ANOMALY":292.4628,"EPHEMERIS_TYPE":0,"CLASSIFICATION_TYPE":"U","NORAD_CAT_ID":55817,"ELEMENT_SET_NO":999,"REV_AT_EPOCH":14729,"BSTAR":0.00028359,"MEAN_MOTION_DOT":1.28e-6,"MEAN_MOTION_DDOT":0}]
